[{"OBJECT_NAME":"LEMUR-2-ANDIS","OBJECT_ID":"2017-042P","EPOCH":"2026-03-09T13:25:33.116448","MEAN_MOTION":15.30557934,"ECCENTRICITY":0.0009101,"INCLINATION":97.3659,"RA_OF_ASC_NODE":249.795,"ARG_OF_PERICENTER":4.3248,"MEAN_ANOMALY":355.807,"EPHEMERIS_TYPE":0,"CLASSIFICATION_TYPE":"U","NORAD_CAT_ID":42838,"ELEMENT_SET_NO":999,"REV_AT_EPOCH":47319,"BSTAR":0.00079875,"MEAN_MOTION_DOT":0.00023598,"MEAN_MOTION_DDOT":0},{"OBJECT_NAME":"STARLINK-36065","OBJECT_ID":"2025-283W","EPOCH":"2026-03-09T04:18:42.243840","MEAN_MOTION":15.30188169,"ECCENTRICITY":0.00012352,"INCLINATION":53.1607,"RA_OF_ASC_NODE":26.7076,"ARG_OF_PERICENTER":87.1727,"MEAN_ANOMALY":272.9415,"EPHEMERIS_TYPE":0,"CLASSIFICATION_TYPE":"U","NORAD_CAT_ID":66898,"ELEMENT_SET_NO":999,"REV_AT_EPOCH":1576,"BSTAR":0.00060492587,"MEAN_MOTION_DOT":0.00017593,"MEAN_MOTION_DDOT":0}]
